FENGYUN 1C DEB          
1 30573U 99025ALP 17345.88887449  .00001046  00000-0  70643-3 0  9993
2 30573  99.1407 299.4487 0103298  70.2176 354.9022 14.00090574552365
